{"type": "FeatureCollection", "features": [{"type": "Feature", "properties": {"norad_id": 25590, "name": "COSMOS 2361", "group": "musson", "lat": 74.67259123779492, "lon": 143.68605455028396, "alt_km": 1002.975218354235, "timestamp": "2025-12-03T22:42:32.905515+00:00", "meta": {"OBJECT_NAME": "COSMOS 2361", "OBJECT_ID": "1998-076A", "EPOCH": "2025-12-03T12:27:39.665376", "MEAN_MOTION": 13.73215963, "ECCENTRICITY": 0.0030156, "INCLINATION": 82.9342, "RA_OF_ASC_NODE": 350.9067, "ARG_OF_PERICENTER": 292.3798, "MEAN_ANOMALY": 221.4388, "EPHEMERIS_TYPE": 0, "CLASSIFICATION_TYPE": "U", "NORAD_CAT_ID": 25590, "ELEMENT_SET_NO": 999, "REV_AT_EPOCH": 34984, "BSTAR": 9.1432e-05, "MEAN_MOTION_DOT": 1e-06, "MEAN_MOTION_DDOT": 0}, "tle": {"line1": "1 25590U 98076A   25337.51920909  .00000100  00000+0  91432-4 0  9999", "line2": "2 25590  82.9342 350.9067 0030156 292.3798 221.4388 13.73215963349842"}}, "geometry": {"type": "Point", "coordinates": [143.68605455028396, 74.67259123779492]}}, {"type": "Feature", "properties": {"norad_id": 26818, "name": "COSMOS 2378", "group": "musson", "lat": 33.02983329453145, "lon": -178.3834995499677, "alt_km": 979.9025612812602, "timestamp": "2025-12-03T22:42:32.905537+00:00", "meta": {"OBJECT_NAME": "COSMOS 2378", "OBJECT_ID": "2001-023A", "EPOCH": "2025-12-03T12:20:33.404928", "MEAN_MOTION": 13.74140764, "ECCENTRICITY": 0.0031926, "INCLINATION": 82.928, "RA_OF_ASC_NODE": 6.5658, "ARG_OF_PERICENTER": 231.2032, "MEAN_ANOMALY": 300.1952, "EPHEMERIS_TYPE": 0, "CLASSIFICATION_TYPE": "U", "NORAD_CAT_ID": 26818, "ELEMENT_SET_NO": 999, "REV_AT_EPOCH": 22796, "BSTAR": 7.9174e-05, "MEAN_MOTION_DOT": 9e-07, "MEAN_MOTION_DDOT": 0}, "tle": {"line1": "1 26818U 01023A   25337.51427552  .00000090  00000+0  79174-4 0  9992", "line2": "2 26818  82.9280   6.5658 0031926 231.2032 300.1952 13.74140764227963"}}, "geometry": {"type": "Point", "coordinates": [-178.3834995499677, 33.02983329453145]}}, {"type": "Feature", "properties": {"norad_id": 27436, "name": "COSMOS 2389", "group": "musson", "lat": -38.329442388538524, "lon": -52.11955403899581, "alt_km": 1006.6415733481863, "timestamp": "2025-12-03T22:42:32.905549+00:00", "meta": {"OBJECT_NAME": "COSMOS 2389", "OBJECT_ID": "2002-026A", "EPOCH": "2025-12-03T11:13:22.477728", "MEAN_MOTION": 13.75153132, "ECCENTRICITY": 0.0047774, "INCLINATION": 82.9494, "RA_OF_ASC_NODE": 313.8495, "ARG_OF_PERICENTER": 85.9242, "MEAN_ANOMALY": 27.9919, "EPHEMERIS_TYPE": 0, "CLASSIFICATION_TYPE": "U", "NORAD_CAT_ID": 27436, "ELEMENT_SET_NO": 999, "REV_AT_EPOCH": 18021, "BSTAR": 6.8506e-05, "MEAN_MOTION_DOT": 8.2e-07, "MEAN_MOTION_DDOT": 0}, "tle": {"line1": "1 27436U 02026A   25337.46762127  .00000082  00000+0  68506-4 0  9995", "line2": "2 27436  82.9494 313.8495 0047774  85.9242  27.9919 13.75153132180212"}}, "geometry": {"type": "Point", "coordinates": [-52.11955403899581, -38.329442388538524]}}, {"type": "Feature", "properties": {"norad_id": 27818, "name": "COSMOS 2398", "group": "musson", "lat": 1.6905519254167447, "lon": -80.61184920314638, "alt_km": 1010.015231833675, "timestamp": "2025-12-03T22:42:32.905560+00:00", "meta": {"OBJECT_NAME": "COSMOS 2398", "OBJECT_ID": "2003-023A", "EPOCH": "2025-12-03T09:17:02.662368", "MEAN_MOTION": 13.7238429, "ECCENTRICITY": 0.0032224, "INCLINATION": 82.9475, "RA_OF_ASC_NODE": 279.591, "ARG_OF_PERICENTER": 136.9059, "MEAN_ANOMALY": 343.0817, "EPHEMERIS_TYPE": 0, "CLASSIFICATION_TYPE": "U", "NORAD_CAT_ID": 27818, "ELEMENT_SET_NO": 999, "REV_AT_EPOCH": 12688, "BSTAR": 4.677e-05, "MEAN_MOTION_DOT": 5.8e-07, "MEAN_MOTION_DDOT": 0}, "tle": {"line1": "1 27818U 03023A   25337.38683637  .00000058  00000+0  46770-4 0  9998", "line2": "2 27818  82.9475 279.5910 0032224 136.9059 343.0817 13.72384290126882"}}, "geometry": {"type": "Point", "coordinates": [-80.61184920314638, 1.6905519254167447]}}, {"type": "Feature", "properties": {"norad_id": 28380, "name": "COSMOS 2407", "group": "musson", "lat": 72.16438936547074, "lon": -118.01685242632115, "alt_km": 940.3666992824865, "timestamp": "2025-12-03T22:42:32.905571+00:00", "meta": {"OBJECT_NAME": "COSMOS 2407", "OBJECT_ID": "2004-028A", "EPOCH": "2025-12-03T10:58:42.891168", "MEAN_MOTION": 13.76312075, "ECCENTRICITY": 0.0040529, "INCLINATION": 82.9613, "RA_OF_ASC_NODE": 219.7646, "ARG_OF_PERICENTER": 80.0151, "MEAN_ANOMALY": 93.258, "EPHEMERIS_TYPE": 0, "CLASSIFICATION_TYPE": "U", "NORAD_CAT_ID": 28380, "ELEMENT_SET_NO": 999, "REV_AT_EPOCH": 7295, "BSTAR": 0.00010091, "MEAN_MOTION_DOT": 1.15e-06, "MEAN_MOTION_DDOT": 0}, "tle": {"line1": "1 28380U 04028A   25337.45744087  .00000115  00000+0  10091-3 0  9994", "line2": "2 28380  82.9613 219.7646 0040529  80.0151  93.2580 13.76312075 72957"}}, "geometry": {"type": "Point", "coordinates": [-118.01685242632115, 72.16438936547074]}}, {"type": "Feature", "properties": {"norad_id": 28521, "name": "COSMOS 2414", "group": "musson", "lat": -29.0576104638302, "lon": -172.63375741816498, "alt_km": 970.5110609457051, "timestamp": "2025-12-03T22:42:32.905581+00:00", "meta": {"OBJECT_NAME": "COSMOS 2414", "OBJECT_ID": "2005-002A", "EPOCH": "2025-12-03T12:28:11.239392", "MEAN_MOTION": 13.87901092, "ECCENTRICITY": 0.0040327, "INCLINATION": 82.9499, "RA_OF_ASC_NODE": 191.6315, "ARG_OF_PERICENTER": 165.5822, "MEAN_ANOMALY": 194.6502, "EPHEMERIS_TYPE": 0, "CLASSIFICATION_TYPE": "U", "NORAD_CAT_ID": 28521, "ELEMENT_SET_NO": 999, "REV_AT_EPOCH": 5667, "BSTAR": 9.5159e-05, "MEAN_MOTION_DOT": 1.3e-06, "MEAN_MOTION_DDOT": 0}, "tle": {"line1": "1 28521U 05002A   25337.51957453  .00000130  00000+0  95159-4 0  9990", "line2": "2 28521  82.9499 191.6315 0040327 165.5822 194.6502 13.87901092 56673"}}, "geometry": {"type": "Point", "coordinates": [-172.63375741816498, -29.0576104638302]}}, {"type": "Feature", "properties": {"norad_id": 32052, "name": "COSMOS 2429", "group": "musson", "lat": 31.274832720495745, "lon": 165.5002615566708, "alt_km": 977.5224369765474, "timestamp": "2025-12-03T22:42:32.905592+00:00", "meta": {"OBJECT_NAME": "COSMOS 2429", "OBJECT_ID": "2007-038A", "EPOCH": "2025-12-03T11:30:59.967936", "MEAN_MOTION": 13.75148024, "ECCENTRICITY": 0.0039622, "INCLINATION": 82.9805, "RA_OF_ASC_NODE": 350.1357, "ARG_OF_PERICENTER": 63.0529, "MEAN_ANOMALY": 297.4666, "EPHEMERIS_TYPE": 0, "CLASSIFICATION_TYPE": "U", "NORAD_CAT_ID": 32052, "ELEMENT_SET_NO": 999, "REV_AT_EPOCH": 91475, "BSTAR": 7.316e-05, "MEAN_MOTION_DOT": 8.6e-07, "MEAN_MOTION_DDOT": 0}, "tle": {"line1": "1 32052U 07038A   25337.47986074  .00000086  00000+0  73160-4 0  9999", "line2": "2 32052  82.9805 350.1357 0039622  63.0529 297.4666 13.75148024914758"}}, "geometry": {"type": "Point", "coordinates": [165.5002615566708, 31.274832720495745]}}, {"type": "Feature", "properties": {"norad_id": 35635, "name": "COSMOS 2454", "group": "musson", "lat": -42.97164041675009, "lon": 168.69617835611143, "alt_km": 947.042800879035, "timestamp": "2025-12-03T22:42:32.905601+00:00", "meta": {"OBJECT_NAME": "COSMOS 2454", "OBJECT_ID": "2009-039A", "EPOCH": "2025-12-03T12:49:56.586144", "MEAN_MOTION": 13.89926796, "ECCENTRICITY": 0.0020482, "INCLINATION": 82.9556, "RA_OF_ASC_NODE": 175.6227, "ARG_OF_PERICENTER": 98.3487, "MEAN_ANOMALY": 320.4945, "EPHEMERIS_TYPE": 0, "CLASSIFICATION_TYPE": "U", "NORAD_CAT_ID": 35635, "ELEMENT_SET_NO": 999, "REV_AT_EPOCH": 83022, "BSTAR": 7.4731e-05, "MEAN_MOTION_DOT": 1.08e-06, "MEAN_MOTION_DDOT": 0}, "tle": {"line1": "1 35635U 09039A   25337.53468271  .00000108  00000+0  74731-4 0  9993", "line2": "2 35635  82.9556 175.6227 0020482  98.3487 320.4945 13.89926796830226"}}, "geometry": {"type": "Point", "coordinates": [168.69617835611143, -42.97164041675009]}}, {"type": "Feature", "properties": {"norad_id": 36519, "name": "COSMOS 2463", "group": "musson", "lat": -34.39985789204502, "lon": -141.97366536778566, "alt_km": 1003.6762346026208, "timestamp": "2025-12-03T22:42:32.905611+00:00", "meta": {"OBJECT_NAME": "COSMOS 2463", "OBJECT_ID": "2010-017A", "EPOCH": "2025-12-03T06:14:02.812128", "MEAN_MOTION": 13.71647845, "ECCENTRICITY": 0.0035106, "INCLINATION": 82.9622, "RA_OF_ASC_NODE": 33.6785, "ARG_OF_PERICENTER": 315.2427, "MEAN_ANOMALY": 111.9683, "EPHEMERIS_TYPE": 0, "CLASSIFICATION_TYPE": "U", "NORAD_CAT_ID": 36519, "ELEMENT_SET_NO": 999, "REV_AT_EPOCH": 78107, "BSTAR": 8.0288e-05, "MEAN_MOTION_DOT": 8.7e-07, "MEAN_MOTION_DDOT": 0}, "tle": {"line1": "1 36519U 10017A   25337.25975477  .00000087  00000+0  80288-4 0  9993", "line2": "2 36519  82.9622  33.6785 0035106 315.2427 111.9683 13.71647845781074"}}, "geometry": {"type": "Point", "coordinates": [-141.97366536778566, -34.39985789204502]}}]}